FENGYUN 1C DEB          
1 37437U 99025EHF 17345.93031573  .00000161  00000-0  10002-3 0  9994
2 37437  98.7686  29.7000 0120557 144.5826 340.5441 14.13901850226506
